NORAD_CAT_ID,OBJECT_NAME,OBJECT_TYPE,EPOCH,MEAN_MOTION,ECCENTRICITY,INCLINATION,RA_OF_ASC_NODE,ARG_OF_PERICENTER,MEAN_ANOMALY,BSTAR,MEAN_MOTION_DOT,MEAN_MOTION_DDOT,TLE_LINE0,TLE_LINE1,TLE_LINE2,SEMIMAJOR_AXIS,PERIOD,APOGEE,PERIGEE,DECAYED
53410.0,STARLINK-4492,PAYLOAD,2023-12-21 14:05:29,15.08840879,0.0001486,53.2169,146.3228,109.4176,250.6977,3.3902e-05,2.52e-06,0.0,0 STARLINK-4492,1 53410U 22097Y   23355.58714849  .00000252  00000-0  33902-4 0  9997,2 53410  53.2169 146.3228 0001486 109.4176 250.6977 15.08840879 76508,6917.878,95.437,540.771,538.715,0.0
53410.0,STARLINK-4492,PAYLOAD,2023-12-21 15:40:52,15.08851811,0.0001481,53.217,146.0253,110.2907,249.8244,-8.6855e-05,-1.67e-05,0.0,0 STARLINK-4492,1 53410U 22097Y   23355.65338547 -.00001670  00000-0 -86855-4 0  9994,2 53410  53.2170 146.0253 0001481 110.2907 249.8244 15.08851811 76024,6917.844,95.437,540.734,538.685,0.0
53410.0,STARLINK-4492,PAYLOAD,2023-12-22 13:56:16,15.0883885,0.0001432,53.2173,141.8636,106.3914,253.7236,7.9378e-05,9.76e-06,0.0,0 STARLINK-4492,1 53410U 22097Y   23356.58075029  .00000976  00000-0  79378-4 0  9998,2 53410  53.2173 141.8636 0001432 106.3914 253.7236 15.08838850 76657,6917.884,95.438,540.74,538.758,0.0
53410.0,STARLINK-4492,PAYLOAD,2023-12-23 09:00:54,15.08790087,0.0001795,53.2179,138.2953,111.2624,248.856,0.00070643,0.00010957,0.0,0 STARLINK-4492,1 53410U 22097Y   23357.37563551  .00010957  00000-0  70643-3 0  9993,2 53410  53.2179 138.2953 0001795 111.2624 248.8560 15.08790087 76283,6918.033,95.441,541.14,538.656,0.0
53410.0,STARLINK-4492,PAYLOAD,2023-12-23 13:47:03,15.08846579,0.0001347,53.2178,137.4027,106.7069,253.4071,-5.6114e-05,-1.181e-05,0.0,0 STARLINK-4492,1 53410U 22097Y   23357.57435152 -.00001181  00000-0 -56114-4 0  9999,2 53410  53.2178 137.4027 0001347 106.7069 253.4071 15.08846579 76805,6917.86,95.437,540.657,538.793,0.0
53410.0,STARLINK-4492,PAYLOAD,2023-12-23 18:33:12,15.08850842,0.0001233,53.216,136.5095,104.0375,256.0755,-1.6093e-05,-5.44e-06,0.0,0 STARLINK-4492,1 53410U 22097Y   23357.77306685 -.00000544  00000-0 -16093-4 0  9993,2 53410  53.2160 136.5095 0001233 104.0375 256.0755 15.08850842 76341,6917.847,95.437,540.565,538.859,0.0
53410.0,STARLINK-4492,PAYLOAD,2023-12-24 08:51:41,15.08828081,0.0001706,53.2159,133.8346,114.0574,246.0597,0.00017685,2.527e-05,0.0,0 STARLINK-4492,1 53410U 22097Y   23358.36923559  .00002527  00000-0  17685-3 0  9992,2 53410  53.2159 133.8346 0001706 114.0574 246.0597 15.08828081 76438,6917.917,95.438,540.962,538.602,0.0
53410.0,STARLINK-4492,PAYLOAD,2023-12-24 13:37:51,15.08839504,0.0001191,53.2158,132.9437,70.0424,290.0697,8.6337e-05,1.086e-05,0.0,0 STARLINK-4492,1 53410U 22097Y   23358.56795330  .00001086  00000-0  86337-4 0  9998,2 53410  53.2158 132.9437 0001191  70.0424 290.0697 15.08839504 76950,6917.882,95.438,540.571,538.923,0.0
53410.0,STARLINK-4492,PAYLOAD,2023-12-24 16:48:37,15.08844553,0.0001295,53.2162,132.3481,78.2008,281.913,0.00014666,2.047e-05,0.0,0 STARLINK-4492,1 53410U 22097Y   23358.70042911  .00002047  00000-0  14666-3 0  9997,2 53410  53.2162 132.3481 0001295  78.2008 281.9130 15.08844553 76480,6917.866,95.437,540.627,538.836,0.0
53410.0,STARLINK-4492,PAYLOAD,2023-12-25 08:42:28,15.08839896,0.0001162,53.2176,129.3726,116.7282,243.3829,4.9117e-05,4.94e-06,0.0,0 STARLINK-4492,1 53410U 22097Y   23359.36283502  .00000494  00000-0  49117-4 0  9997,2 53410  53.2176 129.3726 0001162 116.7282 243.3829 15.08839896 76580,6917.881,95.438,540.55,538.942,0.0
53410.0,STARLINK-4492,PAYLOAD,2023-12-25 13:28:38,15.08837503,0.0001378,53.2158,128.4838,63.3641,296.7492,0.00010476,1.38e-05,0.0,0 STARLINK-4492,1 53410U 22097Y   23359.56155540  .00001380  00000-0  10476-3 0  9999,2 53410  53.2158 128.4838 0001378  63.3641 296.7492 15.08837503 77109,6917.888,95.438,540.706,538.8,0.0
53410.0,STARLINK-4492,PAYLOAD,2023-12-25 15:04:01,15.08842544,0.0001209,53.2167,128.1848,87.9637,272.1493,9.1598e-05,1.17e-05,0.0,0 STARLINK-4492,1 53410U 22097Y   23359.62779178  .00001170  00000-0  91598-4 0  9997,2 53410  53.2167 128.1848 0001209  87.9637 272.1493 15.08842544 77118,6917.873,95.437,540.574,538.901,0.0
53410.0,STARLINK-4492,PAYLOAD,2023-12-26 11:44:02,15.08839955,0.0001192,53.2164,124.3204,74.2904,285.8219,-2.1782e-05,-6.34e-06,0.0,0 STARLINK-4492,1 53410U 22097Y   23360.48891827 -.00000634  00000-0 -21782-4 0  9993,2 53410  53.2164 124.3204 0001192  74.2904 285.8219 15.08839955 76754,6917.881,95.438,540.57,538.921,0.0
53410.0,STARLINK-4492,PAYLOAD,2023-12-26 14:54:48,15.08838328,0.0001484,53.216,123.7256,69.1583,290.9568,2.3533e-05,8.7e-07,0.0,0 STARLINK-4492,1 53410U 22097Y   23360.62139853  .00000087  00000-0  23533-4 0  9999,2 53410  53.2160 123.7256 0001484  69.1583 290.9568 15.08838328 77264,6917.885,95.438,540.777,538.724,0.0
53410.0,STARLINK-4492,PAYLOAD,2023-12-26 18:05:34,15.08845141,0.0001369,53.217,123.1275,82.7676,277.3472,1.2304e-05,-9.2e-07,0.0,0 STARLINK-4492,1 53410U 22097Y   23360.75387349 -.00000092  00000-0  12304-4 0  9999,2 53410  53.2170 123.1275 0001369  82.7676 277.3472 15.08845141 77282,6917.865,95.437,540.677,538.783,0.0
53410.0,STARLINK-4492,PAYLOAD,2023-12-27 11:34:50,15.0875597,0.0001775,53.2175,119.8552,90.9438,269.1758,0.0012435,0.00019512,0.0,0 STARLINK-4492,1 53410U 22097Y   23361.48253378  .00019512  00000-0  12435-2 0  9993,2 53410  53.2175 119.8552 0001775  90.9438 269.1758 15.08755970 76909,6918.137,95.443,541.23,538.774,0.0
53410.0,STARLINK-4492,PAYLOAD,2023-12-27 14:45:34,15.08850743,0.0001371,53.2164,119.2654,64.8473,295.2661,0.00014712,2.055e-05,0.0,0 STARLINK-4492,1 53410U 22097Y   23361.61498786  .00002055  00000-0  14712-3 0  9997,2 53410  53.2164 119.2654 0001371  64.8473 295.2661 15.08850743 77419,6917.848,95.437,540.661,538.764,0.0
53410.0,STARLINK-4492,PAYLOAD,2023-12-27 17:56:21,15.08850562,0.000126,53.2165,118.6689,78.7841,281.3293,0.00012098,1.639e-05,0.0,0 STARLINK-4492,1 53410U 22097Y   23361.74746689  .00001639  00000-0  12098-3 0  9991,2 53410  53.2165 118.6689 0001260  78.7841 281.3293 15.08850562 76944,6917.848,95.437,540.585,538.841,0.0
53410.0,STARLINK-4492,PAYLOAD,2023-12-28 11:25:36,15.08837117,0.0001508,53.2174,115.3932,110.5261,249.5893,4.041e-05,3.55e-06,0.0,0 STARLINK-4492,1 53410U 22097Y   23362.47611813  .00000355  00000-0  40410-4 0  9996,2 53410  53.2174 115.3932 0001508 110.5261 249.5893 15.08837117 77051,6917.889,95.438,540.797,538.711,0.0
53410.0,STARLINK-4492,PAYLOAD,2023-12-28 14:36:22,15.0883762,0.0001383,53.2171,114.8,99.5273,260.5875,4.2924e-05,3.95e-06,0.0,0 STARLINK-4492,1 53410U 22097Y   23362.60859857  .00000395  00000-0  42924-4 0  9999,2 53410  53.2171 114.8000 0001383  99.5273 260.5875 15.08837620 77566,6917.888,95.438,540.709,538.796,0.0
53410.0,STARLINK-4492,PAYLOAD,2023-12-29 12:51:47,15.08842076,0.0001301,53.2172,110.6407,86.6764,273.4377,-4.0592e-05,-9.34e-06,0.0,0 STARLINK-4492,1 53410U 22097Y   23363.53596121 -.00000934  00000-0 -40592-4 0  9994,2 53410  53.2172 110.6407 0001301  86.6764 273.4377 15.08842076 77701,6917.874,95.437,540.639,538.839,0.0
53410.0,STARLINK-4492,PAYLOAD,2023-12-30 14:17:57,15.08841336,0.0001383,53.2174,105.8844,88.1724,271.9426,0.00011693,1.574e-05,0.0,0 STARLINK-4492,1 53410U 22097Y   23364.59579902  .00001574  00000-0  11693-3 0  9997,2 53410  53.2174 105.8844 0001383  88.1724 271.9426 15.08841336 77860,6917.876,95.437,540.698,538.785,0.0
53410.0,STARLINK-4492,PAYLOAD,2023-12-31 10:57:58,15.08833406,0.0001392,53.2176,102.0188,82.1846,277.9304,1.0426e-05,-1.22e-06,0.0,0 STARLINK-4492,1 53410U 22097Y   23365.45692981 -.00000122  00000-0  10426-4 0  9999,2 53410  53.2176 102.0188 0001392  82.1846 277.9304 15.08833406 77502,6917.901,95.438,540.729,538.803,0.0
53410.0,STARLINK-4492,PAYLOAD,2023-12-31 14:08:45,15.08812714,0.0001611,53.218,101.4235,80.991,279.1264,0.00037372,5.66e-05,0.0,0 STARLINK-4492,1 53410U 22097Y   23365.58941184  .00005660  00000-0  37372-3 0  9994,2 53410  53.2180 101.4235 0001611  80.9910 279.1264 15.08812714 77525,6917.964,95.439,540.943,538.714,0.0
53410.0,STARLINK-4492,PAYLOAD,2024-01-01 12:24:08,15.08840709,0.0001651,53.2179,97.2605,74.4567,285.6607,2.6532e-05,1.34e-06,0.0,0 STARLINK-4492,1 53410U 22097Y   24001.51676698  .00000134  00000-0  26532-4 0  9998,2 53410  53.2179  97.2605 0001651  74.4567 285.6607 15.08840709 77669,6917.878,95.438,540.885,538.601,0.0
53410.0,STARLINK-4492,PAYLOAD,2024-01-01 13:59:31,15.08840258,0.0001863,53.2186,96.9633,75.2403,284.8796,6.4594e-05,7.4e-06,0.0,0 STARLINK-4492,1 53410U 22097Y   24001.58300679  .00000740  00000-0  64594-4 0  9991,2 53410  53.2186  96.9633 0001863  75.2403 284.8796 15.08840258 78162,6917.88,95.438,541.033,538.456,0.0
53410.0,STARLINK-4492,PAYLOAD,2024-01-02 12:14:54,15.08877659,0.0001636,53.2181,92.801,65.374,294.7422,-0.00034153,-5.725e-05,0.0,0 STARLINK-4492,1 53410U 22097Y   24002.51035339 -.00005725  00000-0 -34153-3 0  9990,2 53410  53.2181  92.8010 0001636  65.3740 294.7422 15.08877659 77815,6917.765,95.435,540.762,538.499,0.0
53410.0,STARLINK-4492,PAYLOAD,2024-01-02 15:25:40,15.08851034,0.0001525,53.2176,92.2033,82.6644,277.4521,0.00013932,1.931e-05,0.0,0 STARLINK-4492,1 53410U 22097Y   24002.64283542  .00001931  00000-0  13932-3 0  9990,2 53410  53.2176  92.2033 0001525  82.6644 277.4521 15.08851034 77839,6917.847,95.437,540.767,538.657,0.0
53410.0,STARLINK-4492,PAYLOAD,2024-01-03 12:05:43,15.08828043,0.0001364,53.2177,88.3412,93.7503,266.3645,-9.7316e-05,-1.836e-05,0.0,0 STARLINK-4492,1 53410U 22097Y   24003.50398022 -.00001836  00000-0 -97316-4 0  9991,2 53410  53.2177  88.3412 0001364  93.7503 266.3645 15.08828043 77967,6917.917,95.438,540.726,538.838,0.0
53410.0,STARLINK-4492,PAYLOAD,2024-01-04 11:56:29,15.08848435,0.0001311,53.2172,83.8765,89.1246,270.9896,4.5077e-05,4.3e-06,0.0,0 STARLINK-4492,1 53410U 22097Y   24004.49756712  .00000430  00000-0  45077-4 0  9998,2 53410  53.2172  83.8765 0001311  89.1246 270.9896 15.08848435 78112,6917.855,95.437,540.627,538.813,0.0
